{
    "CCSDS_OMM_VERS": "3.0",
    "COMMENT": "GENERATED VIA SPACE-TRACK.ORG API",
    "CREATION_DATE": "2025-05-22T17:14:14",
    "ORIGINATOR": "18 SPCS",
    "OBJECT_NAME": "BEIDOU 11",
    "OBJECT_ID": "2012-008A",
    "CENTER_NAME": "EARTH",
    "REF_FRAME": "TEME",
    "TIME_SYSTEM": "UTC",
    "MEAN_ELEMENT_THEORY": "SGP4",
    "EPOCH": "2025-05-22T12:42:42.173856",
    "MEAN_MOTION": "1.00273642",
    "ECCENTRICITY": "0.00097630",
    "INCLINATION": "2.6000",
    "RA_OF_ASC_NODE": "71.2633",
    "ARG_OF_PERICENTER": "267.2889",
    "MEAN_ANOMALY": "151.2188",
    "EPHEMERIS_TYPE": "0",
    "CLASSIFICATION_TYPE": "U",
    "NORAD_CAT_ID": "38091",
    "ELEMENT_SET_NO": "999",
    "REV_AT_EPOCH": "4845",
    "BSTAR": "0.00000000000000",
    "MEAN_MOTION_DOT": "0.00000067",
    "MEAN_MOTION_DDOT": "0.0000000000000",
    "SEMIMAJOR_AXIS": "42164.211",
    "PERIOD": "1436.070",
    "APOAPSIS": "35827.241",
    "PERIAPSIS": "35744.911",
    "OBJECT_TYPE": "PAYLOAD",
    "RCS_SIZE": "LARGE",
    "COUNTRY_CODE": "PRC",
    "LAUNCH_DATE": "2012-02-24",
    "SITE": "XSC",
    "DECAY_DATE": null,
    "FILE": "4736220",
    "GP_ID": "288141360",
    "TLE_LINE0": "0 BEIDOU 11",
    "TLE_LINE1": "1 38091U 12008A   25142.52965479  .00000067  00000-0  00000-0 0  9996",
    "TLE_LINE2": "2 38091   2.6000  71.2633 0009763 267.2889 151.2188  1.00273642 48452"
}